     2.11           N: GPS NAV DATA                         RINEX VERSION / TYPE
teqc  2018Dec12     gpsops              20220121 01:04:05UTCPGM / RUN BY / DATE
Linux 2.6.32-573.12.1.x86_64|x86_64|gcc -static|Linux 64|=+ COMMENT
CHPI                                    MARKER NAME         COMMENT
41609M003                               MARKER NUMBER       COMMENT
4164613.9484 -4162456.9866 -2445028.7316                    COMMENT
                                                            COMMENT
This data is provided as a public service by NASA/JPL.      COMMENT
No warranty is expressed or implied regarding suitability   COMMENT
for use.  For further information, contact:                 COMMENT
Dave Stowers, NASA/JPL m/s 238-600                          COMMENT
4800 Oak Grove Drive, Pasadena CA 91109 USA                 COMMENT
                                                            END OF HEADER
24 22  1 20 12  0  0.0 2.770391292870D-04-3.410605131648D-13 0.000000000000D+00
    5.300000000000D+01 3.100000000000D+01 5.588447066966D-09 3.791316137021D-01
    1.784414052963D-06 1.229319861159D-02 5.653128027916D-06 5.153690328598D+03
    3.888000000000D+05-7.264316082001D-08 1.641965263747D+00 2.123415470123D-07
    9.340061700203D-01 2.546562500000D+02 8.018939501246D-01-8.691433461662D-09
    2.132231673151D-10 1.000000000000D+00 2.193000000000D+03 0.000000000000D+00
    2.000000000000D+00 0.000000000000D+00 2.328306436539D-09 5.300000000000D+01
    3.816180000000D+05 4.000000000000D+00
12 22  1 20 12  0  0.0-1.586033031344D-04-5.684341886081D-12 0.000000000000D+00
    3.200000000000D+01-1.468750000000D+01 4.355895726255D-09-1.250552969179D+00
   -7.171183824539D-07 8.596934843808D-03 8.499249815941D-06 5.153613805771D+03
    3.888000000000D+05 5.029141902924D-08 2.836913130739D+00 2.477318048477D-07
    9.708530153764D-01 2.206250000000D+02 1.238272380478D+00-7.883185509176D-09
   -6.035965707914D-10 1.000000000000D+00 2.193000000000D+03 0.000000000000D+00
    2.000000000000D+00 0.000000000000D+00-1.257285475731D-08 3.200000000000D+01
    3.816180000000D+05 4.000000000000D+00
11 22  1 20 12  0  0.0-6.175832822919D-05-3.763034328585D-11 0.000000000000D+00
    1.990000000000D+02 4.875000000000D+01 4.714839249123D-09 2.209783700212D+00
    2.413988113403D-06 2.920815022662D-04 1.717358827591D-06 5.153762084961D+03
    3.888000000000D+05 1.117587089539D-08-1.367024445781D+00 5.774199962616D-08
    9.615103743322D-01 3.427812500000D+02 2.872030539211D+00-8.451066306548D-09
    2.239378993409D-10 1.000000000000D+00 2.193000000000D+03 0.000000000000D+00
    2.000000000000D+00 6.300000000000D+01-8.847564458847D-09 7.110000000000D+02
    3.816180000000D+05 4.000000000000D+00
20 22  1 20 12  0  0.0 5.170893855393D-04-2.273736754432D-13 0.000000000000D+00
    7.700000000000D+01-9.203125000000D+01 5.135571060006D-09 1.127442207111D+00
   -4.891306161880D-06 5.268871551380D-03 3.542751073837D-06 5.153731840134D+03
    3.888000000000D+05 3.352761268616D-08-5.293938281093D-01 4.284083843231D-08
    9.416030860509D-01 3.020937500000D+02 3.107770202646D+00-8.541070055565D-09
   -2.510818871398D-10 1.000000000000D+00 2.193000000000D+03 0.000000000000D+00
    2.000000000000D+00 0.000000000000D+00-8.381903171539D-09 7.700000000000D+01
    3.816180000000D+05 4.000000000000D+00
25 22  1 20 12  0  0.0 2.736123278737D-04 5.570655048359D-12 0.000000000000D+00
    3.300000000000D+01-1.859375000000D+01 4.632692970257D-09-1.485767861955D+00
   -9.592622518539D-07 1.039143570233D-02 7.949769496918D-06 5.153717145920D+03
    3.888000000000D+05 2.700835466385D-07 2.760538537316D+00 7.264316082001D-08
    9.582181049903D-01 2.234062500000D+02 9.729513372942D-01-7.934259065166D-09
   -5.814527912712D-10 1.000000000000D+00 2.193000000000D+03 0.000000000000D+00
    2.000000000000D+00 0.000000000000D+00 5.587935447693D-09 3.300000000000D+01
    3.816180000000D+05 4.000000000000D+00
29 22  1 20 12  0  0.0-4.696990363300D-04-4.888534022029D-12 0.000000000000D+00
    1.100000000000D+01 1.017500000000D+02 3.713726120171D-09 2.412476921987D+00
    5.310401320457D-06 1.778527512215D-03 9.944662451744D-06 5.153765445709D+03
    3.888000000000D+05-3.166496753693D-08-2.396509228206D+00 1.676380634308D-08
    9.822966101281D-01 1.996562500000D+02 2.283181635702D+00-7.564600810273D-09
    4.785913638228D-11 1.000000000000D+00 2.193000000000D+03 0.000000000000D+00
    2.000000000000D+00 0.000000000000D+00-1.024454832077D-08 1.100000000000D+01
    3.816180000000D+05 4.000000000000D+00
 5 22  1 20 12  0  0.0-6.854301318526D-05-1.364242052659D-12 0.000000000000D+00
    1.600000000000D+01-1.112500000000D+02 4.660908431259D-09 2.723249998956D+00
   -5.820766091347D-06 5.892684333958D-03 4.688277840614D-06 5.153655481339D+03
    3.888000000000D+05-2.980232238770D-08-4.158681857563D-01-1.080334186554D-07
    9.594876750387D-01 2.892812500000D+02 1.011522335474D+00-8.148196547949D-09
   -2.450102056585D-10 1.000000000000D+00 2.193000000000D+03 0.000000000000D+00
    2.000000000000D+00 0.000000000000D+00-1.117587089539D-08 1.600000000000D+01
    3.816180000000D+05 4.000000000000D+00
 6 22  1 20 12  0  0.0 1.763580366969D-04 1.114131009672D-11 0.000000000000D+00
    1.500000000000D+01 5.571875000000D+01 4.129100565041D-09 4.388425008088D-01
    2.931803464890D-06 2.647962304763D-03 2.367421984673D-06 5.153653079987D+03
    3.888000000000D+05-5.215406417847D-08-1.419699797041D+00-2.235174179077D-08
    9.857850172857D-01 3.429375000000D+02-9.949064226917D-01-8.177126324419D-09
    2.664396697103D-10 1.000000000000D+00 2.193000000000D+03 0.000000000000D+00
    2.000000000000D+00 0.000000000000D+00 4.190951585770D-09 1.500000000000D+01
    3.816180000000D+05 4.000000000000D+00
18 22  1 20 12  0  0.0 2.571814693511D-04-7.503331289627D-12 0.000000000000D+00
    1.140000000000D+02 6.015625000000D+01 4.537689012961D-09 2.618993480162D-01
    3.168359398842D-06 2.089823014103D-03 1.689419150352D-06 5.153625326157D+03
    3.888000000000D+05 6.891787052155D-08-1.403218913060D+00-2.421438694000D-08
    9.701928999257D-01 3.520625000000D+02 3.111854816215D+00-8.384992125721D-09
    2.782258749387D-10 1.000000000000D+00 2.193000000000D+03 0.000000000000D+00
    2.000000000000D+00 0.000000000000D+00-8.381903171539D-09 1.140000000000D+02
    3.816180000000D+05 4.000000000000D+00
31 22  1 20 12  0  0.0-1.608310267329D-04-1.818989403546D-12 0.000000000000D+00
    4.700000000000D+01 1.971875000000D+01 5.019494796392D-09-1.038971948072D+00
    1.041218638420D-06 1.046477421187D-02 5.433335900307D-06 5.153666439056D+03
    3.888000000000D+05 2.384185791016D-07 1.742307040093D+00-1.005828380585D-07
    9.547657455971D-01 2.700937500000D+02 3.675214393946D-01-8.240700401106D-09
    2.635824078367D-10 1.000000000000D+00 2.193000000000D+03 0.000000000000D+00
    2.000000000000D+00 0.000000000000D+00-1.303851604462D-08 4.700000000000D+01
    3.838920000000D+05 4.000000000000D+00
23 22  1 20 12  0  0.0 9.326729923487D-06-3.751665644813D-12 0.000000000000D+00
    1.490000000000D+02-1.169687500000D+02 4.495901558060D-09-5.934718197291D-01
   -6.042420864105D-06 1.953413244337D-03 4.943460226059D-06 5.153702022552D+03
    3.888000000000D+05-2.607703208923D-08-4.033394334835D-01 2.793967723846D-08
    9.673819452610D-01 2.871875000000D+02 2.922312840300D+00-8.214270728776D-09
   -2.278666344171D-10 1.000000000000D+00 2.193000000000D+03 0.000000000000D+00
    2.000000000000D+00 0.000000000000D+00-8.381903171539D-09 4.050000000000D+02
    3.867720000000D+05 4.000000000000D+00
15 22  1 20 11 59 44.0-9.013107046485D-05 2.842170943040D-12 0.000000000000D+00
    9.000000000000D+00-5.596875000000D+01 5.138071164145D-09 1.355472181086D+00
   -2.879649400711D-06 1.392705261242D-02 1.153163611889D-05 5.153733951569D+03
    3.887840000000D+05-3.203749656677D-07 5.468460150858D-01-1.862645149231D-08
    9.301212711015D-01 1.469687500000D+02 1.070832677074D+00-8.324632468642D-09
    1.800074980348D-10 1.000000000000D+00 2.193000000000D+03 0.000000000000D+00
    2.000000000000D+00 0.000000000000D+00-1.071020960808D-08 9.000000000000D+00
    3.871380000000D+05 4.000000000000D+00
25 22  1 20 14  0  0.0 2.736519090831D-04 5.570655048359D-12 0.000000000000D+00
    3.500000000000D+01-1.903125000000D+01 4.788056584633D-09-4.355308931527D-01
   -9.648501873016D-07 1.039197167847D-02 7.601454854012D-06 5.153719049454D+03
    3.960000000000D+05-5.587935447693D-08 2.760480221013D+00 1.471489667892D-07
    9.582123410930D-01 2.306250000000D+02 9.728694328997D-01-8.268201546639D-09
   -5.971677315759D-10 1.000000000000D+00 2.193000000000D+03 0.000000000000D+00
    2.000000000000D+00 0.000000000000D+00 5.587935447693D-09 3.500000000000D+01
    3.888180000000D+05 4.000000000000D+00
12 22  1 20 14  0  0.0-1.586442813277D-04-5.684341886081D-12 0.000000000000D+00
    3.300000000000D+01-1.609375000000D+01 4.414112436929D-09-2.003144292029D-01
   -8.549541234970D-07 8.596824947745D-03 8.419156074524D-06 5.153613889694D+03
    3.960000000000D+05-9.126961231232D-08 2.836855333772D+00 1.080334186554D-07
    9.708482111535D-01 2.235000000000D+02 1.238250356246D+00-8.031048811133D-09
   -5.714523747137D-10 1.000000000000D+00 2.193000000000D+03 0.000000000000D+00
    2.000000000000D+00 0.000000000000D+00-1.257285475731D-08 3.300000000000D+01
    3.888180000000D+05 4.000000000000D+00
18 22  1 20 14  0  0.0 2.571274526417D-04-7.503331289627D-12 0.000000000000D+00
    1.150000000000D+02 5.871875000000D+01 4.490901349782D-09 1.312095388760D+00
    3.080815076828D-06 2.089481451549D-03 1.898035407066D-06 5.153624917984D+03
    3.960000000000D+05-5.587935447693D-09-1.403278502102D+00 6.891787052155D-08
    9.701949787323D-01 3.480312500000D+02 3.111869414675D+00-8.297845638578D-09
    2.110802209099D-10 1.000000000000D+00 2.193000000000D+03 0.000000000000D+00
    2.000000000000D+00 0.000000000000D+00-8.381903171539D-09 1.150000000000D+02
    3.888180000000D+05 4.000000000000D+00
